{
"type": "FeatureCollection",
"name": "aduanas-mx",
"crs": { "type": "name", "properties": { "name": "urn:ogc:def:crs:EPSG::6365" } },
"features": [
{"type":"Feature","properties":{"fid":2328,"ID_PI":2442,"CLASE":"Aduana","SUBCLASE":"N/A","NOMBRE":"El Ceibo","NOMBRE_ALT":"Sueños de Oro","FECHA_ACT":"2017-01-23 09:49:35","CALIREPR":"Definida"},"geometry":{"type":"Point","coordinates":[-90.989155000999972,17.260534043000064]}},
{"type":"Feature","properties":{"fid":2544,"ID_PI":2666,"CLASE":"Aduana","SUBCLASE":"N/A","NOMBRE":"Estación Migratoria San Pedro Tapanatepec","NOMBRE_ALT":"N/D","FECHA_ACT":"2012-12-10 13:07:00","CALIREPR":"Definida"},"geometry":{"type":"Point","coordinates":[-94.213254147999976,16.400283846000036]}},
{"type":"Feature","properties":{"fid":2976,"ID_PI":3129,"CLASE":"Aduana","SUBCLASE":"N/A","NOMBRE":"Aduana Subteniente López","NOMBRE_ALT":"Garita Caobas","FECHA_ACT":"2018-01-18 12:50:18","CALIREPR":"Definida"},"geometry":{"type":"Point","coordinates":[-89.096184011999981,18.46887689600004]}},
{"type":"Feature","properties":{"fid":3176,"ID_PI":3336,"CLASE":"Aduana","SUBCLASE":"N/A","NOMBRE":"Aduana Subteniente López Garita Dziuché","NOMBRE_ALT":"N/D","FECHA_ACT":"2014-03-10 13:06:00","CALIREPR":"Definida"},"geometry":{"type":"Point","coordinates":[-88.817851847999975,19.904217536000033]}},
{"type":"Feature","properties":{"fid":3376,"ID_PI":3539,"CLASE":"Aduana","SUBCLASE":"N/A","NOMBRE":"Sección Aduanera Córdova","NOMBRE_ALT":"Aduana de Ciudad Juárez","FECHA_ACT":"2017-09-29 10:18:30","CALIREPR":"Definida"},"geometry":{"type":"Point","coordinates":[-106.451476792999983,31.762572082000077]}},
{"type":"Feature","properties":{"fid":3465,"ID_PI":3631,"CLASE":"Aduana","SUBCLASE":"N/A","NOMBRE":"N/D","NOMBRE_ALT":"N/D","FECHA_ACT":"2013-03-05 09:44:00","CALIREPR":"Definida"},"geometry":{"type":"Point","coordinates":[-106.483400020999966,31.746486747000063]}},
{"type":"Feature","properties":{"fid":3466,"ID_PI":3632,"CLASE":"Aduana","SUBCLASE":"N/A","NOMBRE":"N/D","NOMBRE_ALT":"N/D","FECHA_ACT":"2013-03-05 09:45:00","CALIREPR":"Definida"},"geometry":{"type":"Point","coordinates":[-106.482672362999949,31.746518078000065]}},
{"type":"Feature","properties":{"fid":4517,"ID_PI":4733,"CLASE":"Aduana","SUBCLASE":"N/A","NOMBRE":"Aduana de Piedras Negras","NOMBRE_ALT":"Garita Km 53","FECHA_ACT":"2012-10-31 09:37:00","CALIREPR":"Definida"},"geometry":{"type":"Point","coordinates":[-100.899390406999942,28.317154182000024]}},
{"type":"Feature","properties":{"fid":5194,"ID_PI":5458,"CLASE":"Aduana","SUBCLASE":"N/A","NOMBRE":"N/D","NOMBRE_ALT":"N/D","FECHA_ACT":"2012-06-25 11:24:00","CALIREPR":"Definida"},"geometry":{"type":"Point","coordinates":[-99.229886539999939,26.381635225000025]}},
{"type":"Feature","properties":{"fid":5208,"ID_PI":5472,"CLASE":"Aduana","SUBCLASE":"N/A","NOMBRE":"N/D","NOMBRE_ALT":"N/D","FECHA_ACT":"2012-07-12 09:37:00","CALIREPR":"Definida"},"geometry":{"type":"Point","coordinates":[-97.950440084,26.060546738000028]}},
{"type":"Feature","properties":{"fid":5224,"ID_PI":5489,"CLASE":"Aduana","SUBCLASE":"N/A","NOMBRE":"N/D","NOMBRE_ALT":"N/D","FECHA_ACT":"2012-08-17 09:52:00","CALIREPR":"Definida"},"geometry":{"type":"Point","coordinates":[-97.817653797999981,25.448033648000035]}},
{"type":"Feature","properties":{"fid":5236,"ID_PI":5501,"CLASE":"Aduana","SUBCLASE":"N/A","NOMBRE":"N/D","NOMBRE_ALT":"N/D","FECHA_ACT":"2012-08-23 15:47:00","CALIREPR":"Definida"},"geometry":{"type":"Point","coordinates":[-98.348780408999971,26.109472187000051]}},
{"type":"Feature","properties":{"fid":5237,"ID_PI":5502,"CLASE":"Aduana","SUBCLASE":"N/A","NOMBRE":"N/D","NOMBRE_ALT":"N/D","FECHA_ACT":"2017-06-06 15:16:47","CALIREPR":"Definida"},"geometry":{"type":"Point","coordinates":[-98.083240978999982,26.056109706000029]}},
{"type":"Feature","properties":{"fid":5238,"ID_PI":5503,"CLASE":"Aduana","SUBCLASE":"N/A","NOMBRE":"N/D","NOMBRE_ALT":"N/D","FECHA_ACT":"2017-06-06 13:04:17","CALIREPR":"Definida"},"geometry":{"type":"Point","coordinates":[-98.083206554999947,26.055570326000066]}},
{"type":"Feature","properties":{"fid":5239,"ID_PI":5504,"CLASE":"Aduana","SUBCLASE":"N/A","NOMBRE":"N/D","NOMBRE_ALT":"N/D","FECHA_ACT":"2012-08-24 13:14:00","CALIREPR":"Definida"},"geometry":{"type":"Point","coordinates":[-99.167580319999956,26.083618218000026]}},
{"type":"Feature","properties":{"fid":5240,"ID_PI":5505,"CLASE":"Aduana","SUBCLASE":"N/A","NOMBRE":"N/D","NOMBRE_ALT":"N/D","FECHA_ACT":"2012-08-28 11:12:00","CALIREPR":"Definida"},"geometry":{"type":"Point","coordinates":[-98.209672084999966,26.042283012000041]}},
{"type":"Feature","properties":{"fid":5243,"ID_PI":5509,"CLASE":"Aduana","SUBCLASE":"N/A","NOMBRE":"N/D","NOMBRE_ALT":"N/D","FECHA_ACT":"2012-09-27 13:17:00","CALIREPR":"Definida"},"geometry":{"type":"Point","coordinates":[-99.60819513499996,27.283142668000039]}},
{"type":"Feature","properties":{"fid":5244,"ID_PI":5510,"CLASE":"Aduana","SUBCLASE":"N/A","NOMBRE":"N/D","NOMBRE_ALT":"N/D","FECHA_ACT":"2012-09-27 13:17:00","CALIREPR":"Definida"},"geometry":{"type":"Point","coordinates":[-99.60894049999996,27.283415426000033]}},
{"type":"Feature","properties":{"fid":5249,"ID_PI":5515,"CLASE":"Aduana","SUBCLASE":"N/A","NOMBRE":"N/D","NOMBRE_ALT":"N/D","FECHA_ACT":"2012-10-10 11:41:00","CALIREPR":"Definida"},"geometry":{"type":"Point","coordinates":[-98.967730459999984,26.043295070000056]}},
{"type":"Feature","properties":{"fid":5250,"ID_PI":5516,"CLASE":"Aduana","SUBCLASE":"N/A","NOMBRE":"N/D","NOMBRE_ALT":"N/D","FECHA_ACT":"2012-10-10 12:12:00","CALIREPR":"Definida"},"geometry":{"type":"Point","coordinates":[-98.588323415,25.970290652000074]}},
{"type":"Feature","properties":{"fid":5252,"ID_PI":5518,"CLASE":"Aduana","SUBCLASE":"N/A","NOMBRE":"N/D","NOMBRE_ALT":"N/D","FECHA_ACT":"2012-10-25 12:02:00","CALIREPR":"Definida"},"geometry":{"type":"Point","coordinates":[-98.26379697699997,25.872690241000043]}},
{"type":"Feature","properties":{"fid":5259,"ID_PI":5526,"CLASE":"Aduana","SUBCLASE":"N/A","NOMBRE":"N/D","NOMBRE_ALT":"N/D","FECHA_ACT":"2025-09-22 00:00:00","CALIREPR":"Definida"},"geometry":{"type":"Point","coordinates":[-99.020101439999962,26.401787650000074]}},
{"type":"Feature","properties":{"fid":5260,"ID_PI":5527,"CLASE":"Aduana","SUBCLASE":"N/A","NOMBRE":"N/D","NOMBRE_ALT":"N/D","FECHA_ACT":"2025-09-22 00:00:00","CALIREPR":"Definida"},"geometry":{"type":"Point","coordinates":[-99.02116463699997,26.402958462000072]}},
{"type":"Feature","properties":{"fid":5261,"ID_PI":5528,"CLASE":"Aduana","SUBCLASE":"N/A","NOMBRE":"N/D","NOMBRE_ALT":"N/D","FECHA_ACT":"2013-03-20 10:51:00","CALIREPR":"Definida"},"geometry":{"type":"Point","coordinates":[-98.210631584999987,26.04234615200005]}},
{"type":"Feature","properties":{"fid":5262,"ID_PI":5529,"CLASE":"Aduana","SUBCLASE":"N/A","NOMBRE":"N/D","NOMBRE_ALT":"N/D","FECHA_ACT":"2013-03-20 10:53:00","CALIREPR":"Definida"},"geometry":{"type":"Point","coordinates":[-97.950920727999971,26.060715543000072]}},
{"type":"Feature","properties":{"fid":5263,"ID_PI":5530,"CLASE":"Aduana","SUBCLASE":"N/A","NOMBRE":"N/D","NOMBRE_ALT":"N/D","FECHA_ACT":"2013-03-20 10:55:00","CALIREPR":"Definida"},"geometry":{"type":"Point","coordinates":[-97.739128727999969,26.021247845000062]}},
{"type":"Feature","properties":{"fid":5264,"ID_PI":5531,"CLASE":"Aduana","SUBCLASE":"N/A","NOMBRE":"N/D","NOMBRE_ALT":"N/D","FECHA_ACT":"2013-03-20 10:57:00","CALIREPR":"Definida"},"geometry":{"type":"Point","coordinates":[-97.739990348999982,26.020289948000027]}},
{"type":"Feature","properties":{"fid":5265,"ID_PI":5532,"CLASE":"Aduana","SUBCLASE":"N/A","NOMBRE":"N/D","NOMBRE_ALT":"N/D","FECHA_ACT":"2013-03-20 11:02:00","CALIREPR":"Definida"},"geometry":{"type":"Point","coordinates":[-97.475405780999949,25.873130613000058]}},
{"type":"Feature","properties":{"fid":5266,"ID_PI":5533,"CLASE":"Aduana","SUBCLASE":"N/A","NOMBRE":"N/D","NOMBRE_ALT":"N/D","FECHA_ACT":"2013-03-20 11:02:00","CALIREPR":"Definida"},"geometry":{"type":"Point","coordinates":[-97.475250873999983,25.873125239000046]}},
{"type":"Feature","properties":{"fid":5326,"ID_PI":5593,"CLASE":"Aduana","SUBCLASE":"N/A","NOMBRE":"N/D","NOMBRE_ALT":"N/D","FECHA_ACT":"2013-06-11 11:43:00","CALIREPR":"Definida"},"geometry":{"type":"Point","coordinates":[-99.546747492999941,27.596503993000056]}},
{"type":"Feature","properties":{"fid":5327,"ID_PI":5594,"CLASE":"Aduana","SUBCLASE":"N/A","NOMBRE":"N/D","NOMBRE_ALT":"N/D","FECHA_ACT":"2013-06-11 12:23:00","CALIREPR":"Definida"},"geometry":{"type":"Point","coordinates":[-99.507504428999937,27.498233036000045]}},
{"type":"Feature","properties":{"fid":5328,"ID_PI":5595,"CLASE":"Aduana","SUBCLASE":"N/A","NOMBRE":"N/D","NOMBRE_ALT":"N/D","FECHA_ACT":"2020-05-27 12:53:06","CALIREPR":"Definida"},"geometry":{"type":"Point","coordinates":[-99.502779656999977,27.498313063000072]}},
{"type":"Feature","properties":{"fid":5329,"ID_PI":5596,"CLASE":"Aduana","SUBCLASE":"N/A","NOMBRE":"N/D","NOMBRE_ALT":"N/D","FECHA_ACT":"2013-06-11 16:23:00","CALIREPR":"Definida"},"geometry":{"type":"Point","coordinates":[-99.200841137999987,26.561153580000052]}},
{"type":"Feature","properties":{"fid":5338,"ID_PI":5605,"CLASE":"Aduana","SUBCLASE":"N/A","NOMBRE":"N/D","NOMBRE_ALT":"N/D","FECHA_ACT":"2013-06-13 13:33:00","CALIREPR":"Definida"},"geometry":{"type":"Point","coordinates":[-98.806467964999968,26.362546503000033]}},
{"type":"Feature","properties":{"fid":5339,"ID_PI":5606,"CLASE":"Aduana","SUBCLASE":"N/A","NOMBRE":"N/D","NOMBRE_ALT":"N/D","FECHA_ACT":"2013-06-13 13:33:00","CALIREPR":"Definida"},"geometry":{"type":"Point","coordinates":[-98.806806243999972,26.362846568000066]}},
{"type":"Feature","properties":{"fid":5345,"ID_PI":5612,"CLASE":"Aduana","SUBCLASE":"N/A","NOMBRE":"N/D","NOMBRE_ALT":"N/D","FECHA_ACT":"2013-06-14 13:05:00","CALIREPR":"Definida"},"geometry":{"type":"Point","coordinates":[-98.566692807999971,26.238896738000051]}},
{"type":"Feature","properties":{"fid":5353,"ID_PI":5620,"CLASE":"Aduana","SUBCLASE":"N/A","NOMBRE":"N/D","NOMBRE_ALT":"N/D","FECHA_ACT":"2013-06-25 14:27:00","CALIREPR":"Definida"},"geometry":{"type":"Point","coordinates":[-98.272190277999982,26.09399484100004]}},
{"type":"Feature","properties":{"fid":5500,"ID_PI":5768,"CLASE":"Aduana","SUBCLASE":"N/A","NOMBRE":"N/D","NOMBRE_ALT":"N/D","FECHA_ACT":"2014-02-06 09:43:00","CALIREPR":"Definida"},"geometry":{"type":"Point","coordinates":[-97.498132940999938,25.896959762000051]}},
{"type":"Feature","properties":{"fid":5504,"ID_PI":5772,"CLASE":"Aduana","SUBCLASE":"N/A","NOMBRE":"N/D","NOMBRE_ALT":"N/D","FECHA_ACT":"2014-02-06 10:48:00","CALIREPR":"Definida"},"geometry":{"type":"Point","coordinates":[-97.50397933499994,25.891372226000044]}},
{"type":"Feature","properties":{"fid":5519,"ID_PI":5788,"CLASE":"Aduana","SUBCLASE":"N/A","NOMBRE":"N/D","NOMBRE_ALT":"N/D","FECHA_ACT":"2014-03-20 14:20:00","CALIREPR":"Definida"},"geometry":{"type":"Point","coordinates":[-99.229805071999976,26.381524388000059]}},
{"type":"Feature","properties":{"fid":5520,"ID_PI":5789,"CLASE":"Aduana","SUBCLASE":"N/A","NOMBRE":"N/D","NOMBRE_ALT":"N/D","FECHA_ACT":"2014-03-20 15:26:00","CALIREPR":"Definida"},"geometry":{"type":"Point","coordinates":[-97.818124757999954,25.44824933600006]}},
{"type":"Feature","properties":{"fid":5529,"ID_PI":5798,"CLASE":"Aduana","SUBCLASE":"N/A","NOMBRE":"N/D","NOMBRE_ALT":"N/D","FECHA_ACT":"2012-11-16 09:40:00","CALIREPR":"Definida"},"geometry":{"type":"Point","coordinates":[-97.88704609499996,22.445797257000038]}},
{"type":"Feature","properties":{"fid":5530,"ID_PI":5799,"CLASE":"Aduana","SUBCLASE":"N/A","NOMBRE":"N/D","NOMBRE_ALT":"N/D","FECHA_ACT":"2012-11-16 09:40:00","CALIREPR":"Definida"},"geometry":{"type":"Point","coordinates":[-97.887102138999978,22.446015503000069]}},
{"type":"Feature","properties":{"fid":5539,"ID_PI":5808,"CLASE":"Aduana","SUBCLASE":"N/A","NOMBRE":"Administración del Sistema Portuario Nacional Tampico","NOMBRE_ALT":"N/D","FECHA_ACT":"2025-06-17 14:41:26","CALIREPR":"Definida"},"geometry":{"type":"Point","coordinates":[-97.857980512999973,22.212167041000043]}},
{"type":"Feature","properties":{"fid":5933,"ID_PI":6210,"CLASE":"Aduana","SUBCLASE":"N/A","NOMBRE":"Mexicali 2","NOMBRE_ALT":"N/D","FECHA_ACT":"2025-09-22 00:00:00","CALIREPR":"Definida"},"geometry":{"type":"Point","coordinates":[-115.388417168999979,32.670057411000073]}},
{"type":"Feature","properties":{"fid":6919,"ID_PI":7267,"CLASE":"Aduana","SUBCLASE":"N/A","NOMBRE":"N/D","NOMBRE_ALT":"N/D","FECHA_ACT":"2025-09-22 00:00:00","CALIREPR":"Definida"},"geometry":{"type":"Point","coordinates":[-114.782627698999988,32.485001878000048]}},
{"type":"Feature","properties":{"fid":6926,"ID_PI":7276,"CLASE":"Aduana","SUBCLASE":"N/A","NOMBRE":"Puerta Comercial Internacional 2 San Luis","NOMBRE_ALT":"Puerto Fronterizo 2","FECHA_ACT":"2021-06-28 15:33:09","CALIREPR":"Definida"},"geometry":{"type":"Point","coordinates":[-114.70146665599998,32.456955376000053]}},
{"type":"Feature","properties":{"fid":6933,"ID_PI":7283,"CLASE":"Aduana","SUBCLASE":"N/A","NOMBRE":"Caborca","NOMBRE_ALT":"N/D","FECHA_ACT":"2021-09-17 16:29:20","CALIREPR":"Definida"},"geometry":{"type":"Point","coordinates":[-112.027251074999981,30.689607180000053]}},
{"type":"Feature","properties":{"fid":6934,"ID_PI":7284,"CLASE":"Aduana","SUBCLASE":"N/A","NOMBRE":"Caborca","NOMBRE_ALT":"N/D","FECHA_ACT":"2021-09-17 11:21:24","CALIREPR":"Definida"},"geometry":{"type":"Point","coordinates":[-112.027352126999972,30.687813762000076]}},
{"type":"Feature","properties":{"fid":6955,"ID_PI":7306,"CLASE":"Aduana","SUBCLASE":"N/A","NOMBRE":"México","NOMBRE_ALT":"N/D","FECHA_ACT":"2018-04-10 10:01:09","CALIREPR":"Definida"},"geometry":{"type":"Point","coordinates":[-110.973292952999941,31.247427638000033]}},
{"type":"Feature","properties":{"fid":6956,"ID_PI":7307,"CLASE":"Aduana","SUBCLASE":"N/A","NOMBRE":"México","NOMBRE_ALT":"N/D","FECHA_ACT":"2018-04-10 13:59:36","CALIREPR":"Definida"},"geometry":{"type":"Point","coordinates":[-110.97268448799997,31.247448477000038]}},
{"type":"Feature","properties":{"fid":6957,"ID_PI":7308,"CLASE":"Aduana","SUBCLASE":"N/A","NOMBRE":"México","NOMBRE_ALT":"N/D","FECHA_ACT":"2018-04-10 14:30:33","CALIREPR":"Definida"},"geometry":{"type":"Point","coordinates":[-110.972040603999972,31.247268739000049]}},
{"type":"Feature","properties":{"fid":6960,"ID_PI":7311,"CLASE":"Aduana","SUBCLASE":"N/A","NOMBRE":"México","NOMBRE_ALT":"N/D","FECHA_ACT":"2018-04-10 12:57:17","CALIREPR":"Definida"},"geometry":{"type":"Point","coordinates":[-110.954000740999959,31.162953269000067]}},
{"type":"Feature","properties":{"fid":6965,"ID_PI":7316,"CLASE":"Aduana","SUBCLASE":"N/A","NOMBRE":"San Antonio","NOMBRE_ALT":"N/D","FECHA_ACT":"2012-07-24 14:47:00","CALIREPR":"Definida"},"geometry":{"type":"Point","coordinates":[-110.579134649999958,30.975878390000048]}},
{"type":"Feature","properties":{"fid":6967,"ID_PI":7318,"CLASE":"Aduana","SUBCLASE":"N/A","NOMBRE":"Aduana de Puerto Peñasco","NOMBRE_ALT":"N/D","FECHA_ACT":"2017-09-18 10:11:35","CALIREPR":"Definida"},"geometry":{"type":"Point","coordinates":[-113.103330762999974,31.22165764500005]}},
{"type":"Feature","properties":{"fid":6979,"ID_PI":7330,"CLASE":"Aduana","SUBCLASE":"N/A","NOMBRE":"Mututicachi","NOMBRE_ALT":"N/D","FECHA_ACT":"2012-07-31 14:00:00","CALIREPR":"Definida"},"geometry":{"type":"Point","coordinates":[-110.013148343999944,30.739337535000061]}},
{"type":"Feature","properties":{"fid":6986,"ID_PI":7338,"CLASE":"Aduana","SUBCLASE":"N/A","NOMBRE":"Aduana México","NOMBRE_ALT":"N/D","FECHA_ACT":"2012-09-05 11:33:00","CALIREPR":"Definida"},"geometry":{"type":"Point","coordinates":[-109.586790664999967,31.087925360000046]}},
{"type":"Feature","properties":{"fid":8639,"ID_PI":9038,"CLASE":"Aduana","SUBCLASE":"N/A","NOMBRE":"Recinto Portuario","NOMBRE_ALT":"N/D","FECHA_ACT":"2012-12-10 13:26:00","CALIREPR":"Definida"},"geometry":{"type":"Point","coordinates":[-102.181338169999947,17.963955396000074]}},
{"type":"Feature","properties":{"fid":10634,"ID_PI":11124,"CLASE":"Aduana","SUBCLASE":"N/A","NOMBRE":"Aduana Interior","NOMBRE_ALT":"Aduana de Guanajuato Puerto Interior","FECHA_ACT":"2017-06-20 13:23:56","CALIREPR":"Definida"},"geometry":{"type":"Point","coordinates":[-101.510075072999939,21.008564438000064]}},
{"type":"Feature","properties":{"fid":13813,"ID_PI":15786,"CLASE":"Aduana","SUBCLASE":"N/A","NOMBRE":"Administración Portuaria Integral de Veracruz","NOMBRE_ALT":"APIVER","FECHA_ACT":"2017-04-20 13:03:30","CALIREPR":"Definida"},"geometry":{"type":"Point","coordinates":[-96.154002917999946,19.214828218000036]}},
{"type":"Feature","properties":{"fid":13939,"ID_PI":15971,"CLASE":"Aduana","SUBCLASE":"N/A","NOMBRE":"N/D","NOMBRE_ALT":"N/D","FECHA_ACT":"2024-06-24 11:48:49","CALIREPR":"Definida"},"geometry":{"type":"Point","coordinates":[-89.664536387999988,21.286463192000042]}},
{"type":"Feature","properties":{"fid":14317,"ID_PI":16572,"CLASE":"Aduana","SUBCLASE":"N/A","NOMBRE":"Sección Aduanera Córdova","NOMBRE_ALT":"Aduana de Ciudad Juárez","FECHA_ACT":"2021-07-07 09:36:21","CALIREPR":"Definida"},"geometry":{"type":"Point","coordinates":[-106.451945619999947,31.762586943000031]}},
{"type":"Feature","properties":{"fid":14406,"ID_PI":16709,"CLASE":"Aduana","SUBCLASE":"N/A","NOMBRE":"N/D","NOMBRE_ALT":"N/D","FECHA_ACT":"2024-06-27 10:38:52","CALIREPR":"Definida"},"geometry":{"type":"Point","coordinates":[-102.245701856999972,22.006199233000075]}},
{"type":"Feature","properties":{"fid":14510,"ID_PI":16871,"CLASE":"Aduana","SUBCLASE":"N/A","NOMBRE":"N/D","NOMBRE_ALT":"N/D","FECHA_ACT":"2016-08-16 13:58:35","CALIREPR":"Definida"},"geometry":{"type":"Point","coordinates":[-92.151212557999941,14.702513375000022]}},
{"type":"Feature","properties":{"fid":14535,"ID_PI":16909,"CLASE":"Aduana","SUBCLASE":"N/A","NOMBRE":"Aduana de Coatzacoalcos","NOMBRE_ALT":"N/D","FECHA_ACT":"2025-05-20 14:01:13","CALIREPR":"Definida"},"geometry":{"type":"Point","coordinates":[-94.414308045999974,18.138629141000024]}},
{"type":"Feature","properties":{"fid":14898,"ID_PI":17522,"CLASE":"Aduana","SUBCLASE":"N/A","NOMBRE":"Administración del Sistema Portuario Nacional de Tuxpan","NOMBRE_ALT":"N/D","FECHA_ACT":"2024-07-31 14:26:39","CALIREPR":"Definida"},"geometry":{"type":"Point","coordinates":[-97.348762153999985,20.953700446000028]}},
{"type":"Feature","properties":{"fid":19917,"ID_PI":25922,"CLASE":"Aduana","SUBCLASE":"N/A","NOMBRE":"Sección Aduanera Guadalupe - Tornillo","NOMBRE_ALT":"Aduana de Ciudad Juárez","FECHA_ACT":"2017-09-19 13:34:48","CALIREPR":"Definida"},"geometry":{"type":"Point","coordinates":[-106.153061124999965,31.433338800000055]}},
{"type":"Feature","properties":{"fid":19918,"ID_PI":25923,"CLASE":"Aduana","SUBCLASE":"N/A","NOMBRE":"Sección Aduanera Guadalupe - Tornillo","NOMBRE_ALT":"Aduana de Ciudad Juárez","FECHA_ACT":"2017-09-19 14:58:18","CALIREPR":"Definida"},"geometry":{"type":"Point","coordinates":[-106.154806754999981,31.432847989000038]}},
{"type":"Feature","properties":{"fid":19919,"ID_PI":25924,"CLASE":"Aduana","SUBCLASE":"N/A","NOMBRE":"Sección Aduanera Guadalupe - Tornillo","NOMBRE_ALT":"Aduana de Ciudad Juárez","FECHA_ACT":"2017-09-19 10:23:09","CALIREPR":"Definida"},"geometry":{"type":"Point","coordinates":[-106.154833465999957,31.432797922000077]}},
{"type":"Feature","properties":{"fid":19920,"ID_PI":25925,"CLASE":"Aduana","SUBCLASE":"N/A","NOMBRE":"Sección Aduanera Guadalupe - Tornillo","NOMBRE_ALT":"Aduana de Ciudad Juárez","FECHA_ACT":"2017-09-19 12:02:08","CALIREPR":"Definida"},"geometry":{"type":"Point","coordinates":[-106.154867691999982,31.43275577300005]}},
{"type":"Feature","properties":{"fid":19967,"ID_PI":26002,"CLASE":"Aduana","SUBCLASE":"N/A","NOMBRE":"Sección Aduanera Córdova Importación","NOMBRE_ALT":"Aduana de Ciudad Juárez","FECHA_ACT":"2017-09-29 11:25:53","CALIREPR":"Definida"},"geometry":{"type":"Point","coordinates":[-106.452750204999973,31.763162247000025]}},
{"type":"Feature","properties":{"fid":19969,"ID_PI":26006,"CLASE":"Aduana","SUBCLASE":"N/A","NOMBRE":"Sección Aduanera Córdova","NOMBRE_ALT":"Aduana de Ciudad Juárez","FECHA_ACT":"2021-07-07 14:59:11","CALIREPR":"Definida"},"geometry":{"type":"Point","coordinates":[-106.452052695999953,31.762598841000056]}},
{"type":"Feature","properties":{"fid":23131,"ID_PI":29977,"CLASE":"Aduana","SUBCLASE":"N/A","NOMBRE":"Aduana de Ojinaga","NOMBRE_ALT":"N/D","FECHA_ACT":"2025-09-22 00:00:00","CALIREPR":"Definida"},"geometry":{"type":"Point","coordinates":[-104.396480632999953,29.559664748000046]}}
]
}
