{
"type": "FeatureCollection",
"name": "aeropuertos",
"crs": { "type": "name", "properties": { "name": "urn:ogc:def:crs:OGC:1.3:CRS84" } },
"features": [
{"type":"Feature","properties":{"fid":1,"ID_PI":1,"CLASE":"Aeropuerto","SUBCLASE":"Internacional","NOMBRE":"Aeropuerto Internacional Benito Juárez de la Ciudad de México - Terminal 2","NOMBRE_ALT":"Aeropuerto Internacional Benito Juárez de la Ciudad de México - Terminal 2","FECHA_ACT":"2020-08-07 12:08:21","CALIREPR":"Definida"},"geometry":{"type":"Point","coordinates":[-99.078187358999969,19.422274071000061]}},
{"type":"Feature","properties":{"fid":30,"ID_PI":31,"CLASE":"Aeropuerto","SUBCLASE":"Internacional","NOMBRE":"Aeropuerto Internacional Benito Juárez de la Ciudad de México - Terminal 1","NOMBRE_ALT":"Aeropuerto Internacional Benito Juárez de la Ciudad de México - Terminal 1","FECHA_ACT":"2020-08-07 15:39:19","CALIREPR":"Definida"},"geometry":{"type":"Point","coordinates":[-99.082942631,19.435437226000033]}},
{"type":"Feature","properties":{"fid":59,"ID_PI":66,"CLASE":"Aeropuerto","SUBCLASE":"Internacional","NOMBRE":"Aeropuerto Internacional Ixtapa Zihuatanejo","NOMBRE_ALT":"N/D","FECHA_ACT":"2017-01-18 16:19:31","CALIREPR":"Definida"},"geometry":{"type":"Point","coordinates":[-101.46388867099995,17.606249911000077]}},
{"type":"Feature","properties":{"fid":108,"ID_PI":116,"CLASE":"Aeropuerto","SUBCLASE":"Internacional","NOMBRE":"Aeropuerto Internacional de Acapulco, General Juan N. Álvarez","NOMBRE_ALT":"N/D","FECHA_ACT":"2017-01-18 13:11:09","CALIREPR":"Definida"},"geometry":{"type":"Point","coordinates":[-99.754447827541512,16.762333873569599]}},
{"type":"Feature","properties":{"fid":160,"ID_PI":173,"CLASE":"Aeropuerto","SUBCLASE":"Militar","NOMBRE":"Base Aérea Militar Número 7","NOMBRE_ALT":"N/D","FECHA_ACT":"2014-03-21 13:07:00","CALIREPR":"Definida"},"geometry":{"type":"Point","coordinates":[-99.977287292999961,16.906500226000048]}},
{"type":"Feature","properties":{"fid":223,"ID_PI":237,"CLASE":"Aeropuerto","SUBCLASE":"Local","NOMBRE":"Aeropuerto Nacional de Chilpancingo","NOMBRE_ALT":"N/D","FECHA_ACT":"2013-03-19 09:51:00","CALIREPR":"Definida"},"geometry":{"type":"Point","coordinates":[-99.512975227999959,17.568271517000028]}},
{"type":"Feature","properties":{"fid":247,"ID_PI":262,"CLASE":"Aeropuerto","SUBCLASE":"Internacional","NOMBRE":"Aeropuerto Internacional de Cuernavaca, Mariano Matamoros","NOMBRE_ALT":"Aeropuerto Internacional de Cuernavaca","FECHA_ACT":"2025-04-10 15:52:55","CALIREPR":"Definida"},"geometry":{"type":"Point","coordinates":[-99.259841593999965,18.830975915000067]}},
{"type":"Feature","properties":{"fid":486,"ID_PI":507,"CLASE":"Aeropuerto","SUBCLASE":"Internacional","NOMBRE":"Aeropuerto Internacional de Toluca, Adolfo López Mateos","NOMBRE_ALT":"Aeropuerto Internacional de Toluca","FECHA_ACT":"2014-03-14 10:46:00","CALIREPR":"Definida"},"geometry":{"type":"Point","coordinates":[-99.570590303460705,19.337893033051699]}},
{"type":"Feature","properties":{"fid":739,"ID_PI":764,"CLASE":"Aeropuerto","SUBCLASE":"Local","NOMBRE":"Aeropuerto Nacional Jorge Jiménez Cantú","NOMBRE_ALT":"N/D","FECHA_ACT":"2022-06-10 16:19:00","CALIREPR":"Definida"},"geometry":{"type":"Point","coordinates":[-99.294536501999971,19.571232519000034]}},
{"type":"Feature","properties":{"fid":762,"ID_PI":791,"CLASE":"Aeropuerto","SUBCLASE":"Nacional","NOMBRE":"Aeropuerto Nacional de Pachuca, Juan Guillermo Villasana","NOMBRE_ALT":"Aeropuerto Nacional de Pachuca","FECHA_ACT":"2013-02-13 13:15:00","CALIREPR":"Definida"},"geometry":{"type":"Point","coordinates":[-98.782670808999967,20.07431606800003]}},
{"type":"Feature","properties":{"fid":975,"ID_PI":1023,"CLASE":"Aeropuerto","SUBCLASE":"Nacional","NOMBRE":"Aeropuerto Nacional de Tehuacán","NOMBRE_ALT":"N/D","FECHA_ACT":"2018-10-12 08:32:35","CALIREPR":"Definida"},"geometry":{"type":"Point","coordinates":[-97.418948479999983,18.492103412000066]}},
{"type":"Feature","properties":{"fid":1001,"ID_PI":1053,"CLASE":"Aeropuerto","SUBCLASE":"Internacional","NOMBRE":"Aeropuerto Internacional de Puebla","NOMBRE_ALT":"Aeropuerto Hermanos Serdán","FECHA_ACT":"2023-09-11 00:00:00","CALIREPR":"Definida"},"geometry":{"type":"Point","coordinates":[-98.376276000999951,19.163991157000055]}},
{"type":"Feature","properties":{"fid":1427,"ID_PI":1506,"CLASE":"Aeropuerto","SUBCLASE":"Militar","NOMBRE":"Estación Aérea Militar No. 9","NOMBRE_ALT":"Aeropuerto Militar de Atlangatepec","FECHA_ACT":"2025-08-18 11:59:04","CALIREPR":"Definida"},"geometry":{"type":"Point","coordinates":[-98.177616178999983,19.531412962000047]}},
{"type":"Feature","properties":{"fid":1573,"ID_PI":1658,"CLASE":"Aeropuerto","SUBCLASE":"Nacional","NOMBRE":"Aeropuerto Nacional, El Lencero","NOMBRE_ALT":"Aeropuerto Nacional de Xalapa","FECHA_ACT":"2017-03-23 10:37:28","CALIREPR":"Definida"},"geometry":{"type":"Point","coordinates":[-96.791430930999979,19.476436432000071]}},
{"type":"Feature","properties":{"fid":1606,"ID_PI":1691,"CLASE":"Aeropuerto","SUBCLASE":"Internacional","NOMBRE":"Aeropuerto Internacional, General Heriberto Jara","NOMBRE_ALT":"Aeropuerto Internacional de Veracruz","FECHA_ACT":"2017-04-20 10:56:50","CALIREPR":"Definida"},"geometry":{"type":"Point","coordinates":[-96.183322923,19.142405367000038]}},
{"type":"Feature","properties":{"fid":1964,"ID_PI":2066,"CLASE":"Aeropuerto","SUBCLASE":"Internacional","NOMBRE":"Aeropuerto Internacional de Minatitlán","NOMBRE_ALT":"Aeropuerto de Canticas","FECHA_ACT":"2017-09-01 09:23:37","CALIREPR":"Definida"},"geometry":{"type":"Point","coordinates":[-94.576660965999963,18.102239139000062]}},
{"type":"Feature","properties":{"fid":1991,"ID_PI":2094,"CLASE":"Aeropuerto","SUBCLASE":"Militar","NOMBRE":"Aeropuerto Fausto Vega Santander","NOMBRE_ALT":"Estación Aeronaval de Tuxpan","FECHA_ACT":"2017-05-15 15:56:20","CALIREPR":"Definida"},"geometry":{"type":"Point","coordinates":[-97.376328475999983,20.944751423000071]}},
{"type":"Feature","properties":{"fid":2068,"ID_PI":2176,"CLASE":"Aeropuerto","SUBCLASE":"Nacional","NOMBRE":"Aeropuerto Nacional El Tajín","NOMBRE_ALT":"Aeropuerto de Poza Rica","FECHA_ACT":"2017-06-07 09:27:49","CALIREPR":"Definida"},"geometry":{"type":"Point","coordinates":[-97.460574860999941,20.599217457000066]}},
{"type":"Feature","properties":{"fid":2162,"ID_PI":2271,"CLASE":"Aeropuerto","SUBCLASE":"Internacional","NOMBRE":"Aeropuerto Internacional de Villahermosa, Carlos Rovirosa Pérez","NOMBRE_ALT":"N/D","FECHA_ACT":"2017-05-08 08:46:37","CALIREPR":"Definida"},"geometry":{"type":"Point","coordinates":[-92.819033018999974,17.992517956000029]}},
{"type":"Feature","properties":{"fid":2411,"ID_PI":2528,"CLASE":"Aeropuerto","SUBCLASE":"Militar","NOMBRE":"Estación Aérea Militar No. 8 Loma Bonita","NOMBRE_ALT":"N/D","FECHA_ACT":"2013-03-14 11:19:00","CALIREPR":"Definida"},"geometry":{"type":"Point","coordinates":[-95.857916755999952,18.017459141000074]}},
{"type":"Feature","properties":{"fid":2433,"ID_PI":2552,"CLASE":"Aeropuerto","SUBCLASE":"Internacional","NOMBRE":"Aeropuerto Internacional Xoxocotlán","NOMBRE_ALT":"N/D","FECHA_ACT":"2013-03-14 11:24:00","CALIREPR":"Definida"},"geometry":{"type":"Point","coordinates":[-96.721583088999978,17.001113733000068]}},
{"type":"Feature","properties":{"fid":2549,"ID_PI":2671,"CLASE":"Aeropuerto","SUBCLASE":"Militar","NOMBRE":"Estación Aeronaval de Salina Cruz","NOMBRE_ALT":"N/D","FECHA_ACT":"2017-05-24 08:50:40","CALIREPR":"Definida"},"geometry":{"type":"Point","coordinates":[-95.203308958999969,16.207790166000052]}},
{"type":"Feature","properties":{"fid":2550,"ID_PI":2672,"CLASE":"Aeropuerto","SUBCLASE":"Militar","NOMBRE":"Base Aérea Militar No. 2 Ixtepec General de División P.A. Antonio Cárdenas Rodríguez","NOMBRE_ALT":"N/D","FECHA_ACT":"2017-01-23 10:54:38","CALIREPR":"Definida"},"geometry":{"type":"Point","coordinates":[-95.090130639999984,16.448702938000054]}},
{"type":"Feature","properties":{"fid":2597,"ID_PI":2724,"CLASE":"Aeropuerto","SUBCLASE":"Internacional","NOMBRE":"Aeropuerto Internacional de Puerto Escondido","NOMBRE_ALT":"N/D","FECHA_ACT":"2021-05-14 12:45:52","CALIREPR":"Definida"},"geometry":{"type":"Point","coordinates":[-97.09158433999994,15.875085488000025]}},
{"type":"Feature","properties":{"fid":2598,"ID_PI":2725,"CLASE":"Aeropuerto","SUBCLASE":"Internacional","NOMBRE":"Aeropuerto Internacional de Bahías de Huatulco","NOMBRE_ALT":"N/D","FECHA_ACT":"2013-03-14 11:50:00","CALIREPR":"Definida"},"geometry":{"type":"Point","coordinates":[-96.257997744999955,15.77200033100007]}},
{"type":"Feature","properties":{"fid":2662,"ID_PI":2793,"CLASE":"Aeropuerto","SUBCLASE":"Internacional","NOMBRE":"Aeropuerto Internacional de Tuxtla Gutiérrez, Ángel Albino Corzo","NOMBRE_ALT":"N/D","FECHA_ACT":"2017-01-24 13:40:38","CALIREPR":"Definida"},"geometry":{"type":"Point","coordinates":[-93.019293900999969,16.561098779000076]}},
{"type":"Feature","properties":{"fid":2683,"ID_PI":2816,"CLASE":"Aeropuerto","SUBCLASE":"Militar","NOMBRE":"Base Aérea Militar No. 6, General de División P. A. Ángel H. Corzo Molina","NOMBRE_ALT":"Antiguo Aeropuerto Francisco Sarabia","FECHA_ACT":"2021-06-07 12:41:05","CALIREPR":"Definida"},"geometry":{"type":"Point","coordinates":[-93.170201059999954,16.742956715000048]}},
{"type":"Feature","properties":{"fid":2803,"ID_PI":2949,"CLASE":"Aeropuerto","SUBCLASE":"Militar","NOMBRE":"Aeropuerto Nacional de Comitán","NOMBRE_ALT":"Base Aérea No. 17 Copalar","FECHA_ACT":"2017-01-24 11:43:14","CALIREPR":"Definida"},"geometry":{"type":"Point","coordinates":[-92.058724354999981,16.174878486000068]}},
{"type":"Feature","properties":{"fid":2805,"ID_PI":2951,"CLASE":"Aeropuerto","SUBCLASE":"Internacional","NOMBRE":"Aeropuerto Internacional de Palenque","NOMBRE_ALT":"N/D","FECHA_ACT":"2015-10-29 15:47:20","CALIREPR":"Definida"},"geometry":{"type":"Point","coordinates":[-92.015655425095503,17.5375213232515]}},
{"type":"Feature","properties":{"fid":2965,"ID_PI":3118,"CLASE":"Aeropuerto","SUBCLASE":"Internacional","NOMBRE":"Aeropuerto Internacional de Campeche. Ing. Alberto Acuña Ongay","NOMBRE_ALT":"N/D","FECHA_ACT":"2014-03-13 11:39:00","CALIREPR":"Definida"},"geometry":{"type":"Point","coordinates":[-90.504088429999968,19.814177607000033]}},
{"type":"Feature","properties":{"fid":3005,"ID_PI":3158,"CLASE":"Aeropuerto","SUBCLASE":"Internacional","NOMBRE":"Aeropuerto Internacional de Ciudad del Carmen","NOMBRE_ALT":"N/D","FECHA_ACT":"2013-09-10 14:03:00","CALIREPR":"Definida"},"geometry":{"type":"Point","coordinates":[-91.802548445999946,18.651102370000046]}},
{"type":"Feature","properties":{"fid":3026,"ID_PI":3181,"CLASE":"Aeropuerto","SUBCLASE":"Local","NOMBRE":"Estación Aeronaval de Tulum","NOMBRE_ALT":"N/D","FECHA_ACT":"2012-11-12 12:41:00","CALIREPR":"Definida"},"geometry":{"type":"Point","coordinates":[-87.437688229999935,20.225762488000044]}},
{"type":"Feature","properties":{"fid":3037,"ID_PI":3192,"CLASE":"Aeropuerto","SUBCLASE":"Internacional","NOMBRE":"Aeropuerto Internacional de Chetumal","NOMBRE_ALT":"N/D","FECHA_ACT":"2012-11-26 14:58:00","CALIREPR":"Definida"},"geometry":{"type":"Point","coordinates":[-88.324200680813902,18.506605934974399]}},
{"type":"Feature","properties":{"fid":3041,"ID_PI":3196,"CLASE":"Aeropuerto","SUBCLASE":"Local","NOMBRE":"Aeródromo Playa del Carmen","NOMBRE_ALT":"N/D","FECHA_ACT":"2021-04-30 12:56:23","CALIREPR":"Definida"},"geometry":{"type":"Point","coordinates":[-87.081341572999975,20.622751963000042]}},
{"type":"Feature","properties":{"fid":3042,"ID_PI":3197,"CLASE":"Aeropuerto","SUBCLASE":"Internacional","NOMBRE":"Aeropuerto Internacional de Cancún","NOMBRE_ALT":"N/D","FECHA_ACT":"2020-08-27 10:00:50","CALIREPR":"Definida"},"geometry":{"type":"Point","coordinates":[-86.876271871999961,21.039831803000027]}},
{"type":"Feature","properties":{"fid":3043,"ID_PI":3198,"CLASE":"Aeropuerto","SUBCLASE":"Internacional","NOMBRE":"Aeropuerto Internacional de Cozumel","NOMBRE_ALT":"N/D","FECHA_ACT":"2025-08-04 10:12:34","CALIREPR":"Definida"},"geometry":{"type":"Point","coordinates":[-86.930109884999979,20.511517866000077]}},
{"type":"Feature","properties":{"fid":3103,"ID_PI":3263,"CLASE":"Aeropuerto","SUBCLASE":"Local","NOMBRE":"Aeropuerto Local Cupul","NOMBRE_ALT":"N/D","FECHA_ACT":"2013-03-05 16:19:00","CALIREPR":"Definida"},"geometry":{"type":"Point","coordinates":[-88.167623202999948,21.152091063000057]}},
{"type":"Feature","properties":{"fid":3104,"ID_PI":3264,"CLASE":"Aeropuerto","SUBCLASE":"Nacional","NOMBRE":"Aeropuerto Nacional Chichén Itzá","NOMBRE_ALT":"N/D","FECHA_ACT":"2013-03-05 16:26:00","CALIREPR":"Definida"},"geometry":{"type":"Point","coordinates":[-88.566283263999935,20.689055058000065]}},
{"type":"Feature","properties":{"fid":3105,"ID_PI":3265,"CLASE":"Aeropuerto","SUBCLASE":"Internacional","NOMBRE":"Aeropuerto Internacional Chichen Itzá","NOMBRE_ALT":"Aeropuerto Internacional de Kaua","FECHA_ACT":"2016-10-20 15:40:17","CALIREPR":"Definida"},"geometry":{"type":"Point","coordinates":[-88.449163928999951,20.638885043000073]}},
{"type":"Feature","properties":{"fid":3209,"ID_PI":3370,"CLASE":"Aeropuerto","SUBCLASE":"Internacional","NOMBRE":"Aeropuerto Internacional de Mérida, Lic. Manuel Crescencio Rejón","NOMBRE_ALT":"N/D","FECHA_ACT":"2019-07-16 14:37:20","CALIREPR":"Definida"},"geometry":{"type":"Point","coordinates":[-89.663135499999953,20.933748303000073]}},
{"type":"Feature","properties":{"fid":3288,"ID_PI":3449,"CLASE":"Aeropuerto","SUBCLASE":"Local","NOMBRE":"Aeropuerto Nuevo Casas Grandes","NOMBRE_ALT":"Municipio de Nuevo Casas Grandes, Chihuahua","FECHA_ACT":"2017-01-20 10:39:36","CALIREPR":"Definida"},"geometry":{"type":"Point","coordinates":[-107.875833412999953,30.402301875000031]}},
{"type":"Feature","properties":{"fid":3377,"ID_PI":3540,"CLASE":"Aeropuerto","SUBCLASE":"Internacional","NOMBRE":"Aeropuerto Internacional de Ciudad Juárez, Abraham González","NOMBRE_ALT":"N/D","FECHA_ACT":"2012-09-19 09:36:00","CALIREPR":"Definida"},"geometry":{"type":"Point","coordinates":[-106.435987628999953,31.635875397000063]}},
{"type":"Feature","properties":{"fid":3576,"ID_PI":3749,"CLASE":"Aeropuerto","SUBCLASE":"Local","NOMBRE":"Aeropuerto Parral","NOMBRE_ALT":"N/D","FECHA_ACT":"2017-06-24 11:02:41","CALIREPR":"Definida"},"geometry":{"type":"Point","coordinates":[-105.777018925999982,26.919980861000056]}},
{"type":"Feature","properties":{"fid":3639,"ID_PI":3815,"CLASE":"Aeropuerto","SUBCLASE":"Militar","NOMBRE":"Aeropuerto Militar Santa","NOMBRE_ALT":"N/D","FECHA_ACT":"2017-01-20 09:58:29","CALIREPR":"Definida"},"geometry":{"type":"Point","coordinates":[-105.714302630999953,27.784436807000077]}},
{"type":"Feature","properties":{"fid":3657,"ID_PI":3833,"CLASE":"Aeropuerto","SUBCLASE":"Internacional","NOMBRE":"Aeropuerto Internacional de Creel","NOMBRE_ALT":"Aeropuerto Regional Barrancas del Cobre","FECHA_ACT":"2016-06-23 12:34:25","CALIREPR":"Definida"},"geometry":{"type":"Point","coordinates":[-107.651313896,27.72764096800006]}},
{"type":"Feature","properties":{"fid":3687,"ID_PI":3868,"CLASE":"Aeropuerto","SUBCLASE":"Internacional","NOMBRE":"Aeropuerto Internacional de Chihuahua, General Roberto Fierro Villalobos","NOMBRE_ALT":"N/D","FECHA_ACT":"2025-09-29 00:00:00","CALIREPR":"Definida"},"geometry":{"type":"Point","coordinates":[-105.96945193199997,28.704046629000061]}},
{"type":"Feature","properties":{"fid":3866,"ID_PI":4060,"CLASE":"Aeropuerto","SUBCLASE":"Internacional","NOMBRE":"Aeropuerto Internacional de Durango, General Guadalupe Victoria","NOMBRE_ALT":"Aeropuerto Internacional de Durango","FECHA_ACT":"2017-01-19 16:28:05","CALIREPR":"Definida"},"geometry":{"type":"Point","coordinates":[-104.534093265999957,24.126438564000068]}},
{"type":"Feature","properties":{"fid":4233,"ID_PI":4442,"CLASE":"Aeropuerto","SUBCLASE":"Internacional","NOMBRE":"Aeropuerto Internacional de Zacatecas, General Leobardo C. Ruíz","NOMBRE_ALT":"N/D","FECHA_ACT":"2017-06-23 11:38:08","CALIREPR":"Definida"},"geometry":{"type":"Point","coordinates":[-102.680071715999986,22.900498621000054]}},
{"type":"Feature","properties":{"fid":4381,"ID_PI":4594,"CLASE":"Aeropuerto","SUBCLASE":"Internacional","NOMBRE":"Aeropuerto Internacional de Torreón","NOMBRE_ALT":"N/D","FECHA_ACT":"2012-10-31 11:59:00","CALIREPR":"Definida"},"geometry":{"type":"Point","coordinates":[-103.398642073999952,25.562824714000044]}},
{"type":"Feature","properties":{"fid":4382,"ID_PI":4595,"CLASE":"Aeropuerto","SUBCLASE":"Internacional","NOMBRE":"Aeropuerto Internacional de Saltillo, Plan de Guadalupe","NOMBRE_ALT":"N/D","FECHA_ACT":"2012-10-31 12:02:00","CALIREPR":"Definida"},"geometry":{"type":"Point","coordinates":[-100.932294535999972,25.54912648800007]}},
{"type":"Feature","properties":{"fid":4513,"ID_PI":4727,"CLASE":"Aeropuerto","SUBCLASE":"Internacional","NOMBRE":"Aeropuerto Internacional de Piedras Negras","NOMBRE_ALT":"N/D","FECHA_ACT":"2012-10-31 09:15:00","CALIREPR":"Definida"},"geometry":{"type":"Point","coordinates":[-100.544611280999959,28.629189838000059]}},
{"type":"Feature","properties":{"fid":4589,"ID_PI":4805,"CLASE":"Aeropuerto","SUBCLASE":"Internacional","NOMBRE":"Aeropuerto Internacional Ciudad Acuña","NOMBRE_ALT":"N/D","FECHA_ACT":"2014-04-02 15:26:00","CALIREPR":"Definida"},"geometry":{"type":"Point","coordinates":[-101.096145921999948,29.334677417000027]}},
{"type":"Feature","properties":{"fid":4595,"ID_PI":4811,"CLASE":"Aeropuerto","SUBCLASE":"Internacional","NOMBRE":"Aeropuerto Internacional de Monclova, Venustiano Carranza","NOMBRE_ALT":"N/D","FECHA_ACT":"2012-10-25 13:13:00","CALIREPR":"Definida"},"geometry":{"type":"Point","coordinates":[-101.460481312999946,26.953809395000064]}},
{"type":"Feature","properties":{"fid":4816,"ID_PI":5050,"CLASE":"Aeropuerto","SUBCLASE":"Internacional","NOMBRE":"Aeropuerto Internacional del Norte","NOMBRE_ALT":"N/D","FECHA_ACT":"2024-08-06 12:06:09","CALIREPR":"Definida"},"geometry":{"type":"Point","coordinates":[-100.238279125999952,25.860110404000068]}},
{"type":"Feature","properties":{"fid":4873,"ID_PI":5112,"CLASE":"Aeropuerto","SUBCLASE":"Internacional","NOMBRE":"Aeropuerto Internacional de Monterrey - Terminal C","NOMBRE_ALT":"N/D","FECHA_ACT":"2013-03-14 14:05:00","CALIREPR":"Definida"},"geometry":{"type":"Point","coordinates":[-100.11910753899997,25.779448236000068]}},
{"type":"Feature","properties":{"fid":4874,"ID_PI":5113,"CLASE":"Aeropuerto","SUBCLASE":"Internacional","NOMBRE":"Aeropuerto Internacional de Monterrey","NOMBRE_ALT":"Aeropuerto Internacional General Mariano Escobedo","FECHA_ACT":"2021-09-06 09:16:59","CALIREPR":"Definida"},"geometry":{"type":"Point","coordinates":[-100.114722354999969,25.77690743900007]}},
{"type":"Feature","properties":{"fid":4875,"ID_PI":5114,"CLASE":"Aeropuerto","SUBCLASE":"Internacional","NOMBRE":"Aeropuerto Internacional de Monterrey - Terminal B","NOMBRE_ALT":"Aeropuerto Internacional General Mariano Escobedo - Terminal B","FECHA_ACT":"2021-09-06 09:10:37","CALIREPR":"Definida"},"geometry":{"type":"Point","coordinates":[-100.111813151999968,25.774570131000075]}},
{"type":"Feature","properties":{"fid":5190,"ID_PI":5453,"CLASE":"Aeropuerto","SUBCLASE":"Internacional","NOMBRE":"Aeropuerto Internacional de Nuevo Laredo, Quetzalcóatl","NOMBRE_ALT":"Aeropuerto Internacional de Nuevo Laredo","FECHA_ACT":"2012-06-19 12:31:00","CALIREPR":"Definida"},"geometry":{"type":"Point","coordinates":[-99.567814949999971,27.449901179000054]}},
{"type":"Feature","properties":{"fid":5202,"ID_PI":5466,"CLASE":"Aeropuerto","SUBCLASE":"Internacional","NOMBRE":"Aeropuerto Internacional de Reynosa General Lucio Blanco","NOMBRE_ALT":"N/D","FECHA_ACT":"2022-05-20 13:40:03","CALIREPR":"Definida"},"geometry":{"type":"Point","coordinates":[-98.22691331599998,26.011903176000033]}},
{"type":"Feature","properties":{"fid":5216,"ID_PI":5481,"CLASE":"Aeropuerto","SUBCLASE":"Internacional","NOMBRE":"Aeropuerto Internacional de Matamoros, General Servando Canales","NOMBRE_ALT":"N/D","FECHA_ACT":"2012-08-14 13:00:00","CALIREPR":"Definida"},"geometry":{"type":"Point","coordinates":[-97.53095749199997,25.771303499000055]}},
{"type":"Feature","properties":{"fid":5255,"ID_PI":5522,"CLASE":"Aeropuerto","SUBCLASE":"Local","NOMBRE":"Aeropista de Nueva Ciudad Guerrero","NOMBRE_ALT":"N/D","FECHA_ACT":"2017-04-18 10:32:20","CALIREPR":"Definida"},"geometry":{"type":"Point","coordinates":[-99.151727687999937,26.52237505100004]}},
{"type":"Feature","properties":{"fid":5647,"ID_PI":5918,"CLASE":"Aeropuerto","SUBCLASE":"Internacional","NOMBRE":"Aeropuerto Internacional de Tampico, Gral. Francisco Javier Mina","NOMBRE_ALT":"N/D","FECHA_ACT":"2019-09-17 15:37:28","CALIREPR":"Definida"},"geometry":{"type":"Point","coordinates":[-97.870070261999956,22.289256605000048]}},
{"type":"Feature","properties":{"fid":5652,"ID_PI":5923,"CLASE":"Aeropuerto","SUBCLASE":"Internacional","NOMBRE":"Aeropuerto Internacional de Cd. Victoria General Pedro J. Méndez","NOMBRE_ALT":"N/D","FECHA_ACT":"2012-10-01 14:35:00","CALIREPR":"Definida"},"geometry":{"type":"Point","coordinates":[-98.954925554999988,23.71274949900004]}},
{"type":"Feature","properties":{"fid":5653,"ID_PI":5924,"CLASE":"Aeropuerto","SUBCLASE":"Internacional","NOMBRE":"Aeropuerto Internacional de Cd. Victoria General Pedro J. Méndez - Terminal 1","NOMBRE_ALT":"N/D","FECHA_ACT":"2012-10-01 14:36:00","CALIREPR":"Definida"},"geometry":{"type":"Point","coordinates":[-98.955363796999976,23.711673142000052]}},
{"type":"Feature","properties":{"fid":5654,"ID_PI":5925,"CLASE":"Aeropuerto","SUBCLASE":"Internacional","NOMBRE":"Aeropuerto Internacional de Cd. Victoria General Pedro J. Méndez - Terminal 2","NOMBRE_ALT":"N/D","FECHA_ACT":"2012-10-01 14:36:00","CALIREPR":"Definida"},"geometry":{"type":"Point","coordinates":[-98.956364752999946,23.716592715000047]}},
{"type":"Feature","properties":{"fid":5788,"ID_PI":6060,"CLASE":"Aeropuerto","SUBCLASE":"Local","NOMBRE":"Aeropuerto de las Huastecas","NOMBRE_ALT":"N/D","FECHA_ACT":"2020-10-09 14:44:30","CALIREPR":"Definida"},"geometry":{"type":"Point","coordinates":[-99.016596897999989,22.748192746000029]}},
{"type":"Feature","properties":{"fid":5813,"ID_PI":6087,"CLASE":"Aeropuerto","SUBCLASE":"Local","NOMBRE":"Aeropista La Pesca","NOMBRE_ALT":"N/D","FECHA_ACT":"2012-09-20 11:25:00","CALIREPR":"Definida"},"geometry":{"type":"Point","coordinates":[-97.773262129999978,23.793553228000064]}},
{"type":"Feature","properties":{"fid":5878,"ID_PI":6153,"CLASE":"Aeropuerto","SUBCLASE":"Internacional","NOMBRE":"Aeropuerto Internacional de Mexicali, Gral. Rodolfo Sánchez Taboada","NOMBRE_ALT":"N/D","FECHA_ACT":"2019-09-19 14:28:05","CALIREPR":"Definida"},"geometry":{"type":"Point","coordinates":[-115.247885031999928,32.628473353000061]}},
{"type":"Feature","properties":{"fid":6034,"ID_PI":6316,"CLASE":"Aeropuerto","SUBCLASE":"Internacional","NOMBRE":"Aeropuerto Internacional de San Felipe","NOMBRE_ALT":"N/D","FECHA_ACT":"2014-04-09 13:55:00","CALIREPR":"Definida"},"geometry":{"type":"Point","coordinates":[-114.808367493,30.932169444000071]}},
{"type":"Feature","properties":{"fid":6307,"ID_PI":6628,"CLASE":"Aeropuerto","SUBCLASE":"Internacional","NOMBRE":"Aeropuerto Internacional de Tijuana, Gral. Abelardo Rodríguez","NOMBRE_ALT":"N/D","FECHA_ACT":"2014-04-11 11:19:00","CALIREPR":"Definida"},"geometry":{"type":"Point","coordinates":[-116.973127735,32.546164115000067]}},
{"type":"Feature","properties":{"fid":6331,"ID_PI":6653,"CLASE":"Aeropuerto","SUBCLASE":"Internacional","NOMBRE":"Aeropuerto Internacional de Los Cabos","NOMBRE_ALT":"N/D","FECHA_ACT":"2012-07-06 14:43:00","CALIREPR":"Definida"},"geometry":{"type":"Point","coordinates":[-109.717302299999972,23.162577191000025]}},
{"type":"Feature","properties":{"fid":6337,"ID_PI":6660,"CLASE":"Aeropuerto","SUBCLASE":"Internacional","NOMBRE":"Aeropuerto Internacional de La Paz, Gral. Manuel Márquez de León","NOMBRE_ALT":"N/D","FECHA_ACT":"2013-03-14 11:59:00","CALIREPR":"Definida"},"geometry":{"type":"Point","coordinates":[-110.367633080999966,24.076066321000042]}},
{"type":"Feature","properties":{"fid":6409,"ID_PI":6737,"CLASE":"Aeropuerto","SUBCLASE":"Internacional","NOMBRE":"Aeropuerto Internacional de Loreto","NOMBRE_ALT":"N/D","FECHA_ACT":"2013-03-04 11:53:00","CALIREPR":"Definida"},"geometry":{"type":"Point","coordinates":[-111.352701954999986,25.991018584000074]}},
{"type":"Feature","properties":{"fid":6498,"ID_PI":6829,"CLASE":"Aeropuerto","SUBCLASE":"Internacional","NOMBRE":"Aeropuerto Internacional de Los Mochis","NOMBRE_ALT":"Aeropuerto Valle Del Fuerte","FECHA_ACT":"2018-04-05 13:57:46","CALIREPR":"Definida"},"geometry":{"type":"Point","coordinates":[-109.082700227999965,25.690166920000024]}},
{"type":"Feature","properties":{"fid":6649,"ID_PI":6988,"CLASE":"Aeropuerto","SUBCLASE":"Internacional","NOMBRE":"Aeropuerto Internacional de Culiacán","NOMBRE_ALT":"N/D","FECHA_ACT":"2013-03-14 14:11:00","CALIREPR":"Definida"},"geometry":{"type":"Point","coordinates":[-107.469471041999952,24.766690707000066]}},
{"type":"Feature","properties":{"fid":6850,"ID_PI":7196,"CLASE":"Aeropuerto","SUBCLASE":"Internacional","NOMBRE":"Aeropuerto Internacional de Mazatlán","NOMBRE_ALT":"Aeropuerto Gral. Rafael Buelna","FECHA_ACT":"2017-03-01 13:27:45","CALIREPR":"Definida"},"geometry":{"type":"Point","coordinates":[-106.270190276999983,23.16735860700004]}},
{"type":"Feature","properties":{"fid":6929,"ID_PI":7279,"CLASE":"Aeropuerto","SUBCLASE":"Internacional","NOMBRE":"Aeropuerto Internacional de Puerto Peñasco","NOMBRE_ALT":"N/D","FECHA_ACT":"2024-06-29 13:32:46","CALIREPR":"Definida"},"geometry":{"type":"Point","coordinates":[-113.518737301999977,31.352362795000033]}},
{"type":"Feature","properties":{"fid":6966,"ID_PI":7317,"CLASE":"Aeropuerto","SUBCLASE":"Internacional","NOMBRE":"Aeropuerto Internacional de Nogales","NOMBRE_ALT":"N/D","FECHA_ACT":"2018-04-10 11:08:24","CALIREPR":"Definida"},"geometry":{"type":"Point","coordinates":[-110.972572493999962,31.22551241300005]}},
{"type":"Feature","properties":{"fid":7050,"ID_PI":7405,"CLASE":"Aeropuerto","SUBCLASE":"Internacional","NOMBRE":"Aeropuerto Internacional de Hermosillo, Gral. Ignacio Pesqueira García","NOMBRE_ALT":"N/D","FECHA_ACT":"2012-11-13 09:28:00","CALIREPR":"Definida"},"geometry":{"type":"Point","coordinates":[-111.051585082999964,29.089672115000045]}},
{"type":"Feature","properties":{"fid":7141,"ID_PI":7500,"CLASE":"Aeropuerto","SUBCLASE":"Internacional","NOMBRE":"Aeropuerto Internacional de Guaymas, Gral. José María Yáñez","NOMBRE_ALT":"N/D","FECHA_ACT":"2012-12-06 11:40:00","CALIREPR":"Definida"},"geometry":{"type":"Point","coordinates":[-110.921443561999979,27.969375953000053]}},
{"type":"Feature","properties":{"fid":7144,"ID_PI":7503,"CLASE":"Aeropuerto","SUBCLASE":"Internacional","NOMBRE":"Aeropuerto Internacional de Ciudad Obregón","NOMBRE_ALT":"N/D","FECHA_ACT":"2012-12-12 10:50:00","CALIREPR":"Definida"},"geometry":{"type":"Point","coordinates":[-109.833257087,27.397808862000034]}},
{"type":"Feature","properties":{"fid":7424,"ID_PI":7794,"CLASE":"Aeropuerto","SUBCLASE":"Local","NOMBRE":"Aeródromo de Zacapu","NOMBRE_ALT":"N/D","FECHA_ACT":"2020-02-07 09:37:21","CALIREPR":"Definida"},"geometry":{"type":"Point","coordinates":[-101.76028327399996,19.852643697000076]}},
{"type":"Feature","properties":{"fid":7661,"ID_PI":8034,"CLASE":"Aeropuerto","SUBCLASE":"Local","NOMBRE":"Aeropuerto Las Lomas","NOMBRE_ALT":"Aeródromo de la Piedad","FECHA_ACT":"2017-08-18 12:38:56","CALIREPR":"Definida"},"geometry":{"type":"Point","coordinates":[-101.989385429999984,20.311290875000054]}},
{"type":"Feature","properties":{"fid":8033,"ID_PI":8418,"CLASE":"Aeropuerto","SUBCLASE":"Local","NOMBRE":"Aeródromo el Baztán","NOMBRE_ALT":"N/D","FECHA_ACT":"2013-08-26 16:07:00","CALIREPR":"Definida"},"geometry":{"type":"Point","coordinates":[-101.163346532,18.743885599000066]}},
{"type":"Feature","properties":{"fid":8034,"ID_PI":8419,"CLASE":"Aeropuerto","SUBCLASE":"Nacional","NOMBRE":"Pista Aérea Ario de Rosales","NOMBRE_ALT":"N/D","FECHA_ACT":"2013-08-26 16:20:00","CALIREPR":"Definida"},"geometry":{"type":"Point","coordinates":[-101.682854219999967,19.234735044000047]}},
{"type":"Feature","properties":{"fid":8076,"ID_PI":8461,"CLASE":"Aeropuerto","SUBCLASE":"Internacional","NOMBRE":"Aeropuerto Internacional de Morelia, Gral. Francisco J. Mújica","NOMBRE_ALT":"Aeropuerto Internacional de Morelia","FECHA_ACT":"2021-05-03 11:31:30","CALIREPR":"Definida"},"geometry":{"type":"Point","coordinates":[-101.027326854999956,19.843957225000054]}},
{"type":"Feature","properties":{"fid":8706,"ID_PI":9113,"CLASE":"Aeropuerto","SUBCLASE":"Nacional","NOMBRE":"Aeropuerto Nacional de Lázaro Cárdenas","NOMBRE_ALT":"N/D","FECHA_ACT":"2014-07-01 12:22:54","CALIREPR":"Definida"},"geometry":{"type":"Point","coordinates":[-102.223290005639996,17.996537825039201]}},
{"type":"Feature","properties":{"fid":8707,"ID_PI":9114,"CLASE":"Aeropuerto","SUBCLASE":"Nacional","NOMBRE":"Aeropuerto Nacional Pablo L. Sidar","NOMBRE_ALT":"N/D","FECHA_ACT":"2024-02-29 13:55:18","CALIREPR":"Definida"},"geometry":{"type":"Point","coordinates":[-102.399548165999988,19.091544751000072]}},
{"type":"Feature","properties":{"fid":8781,"ID_PI":9189,"CLASE":"Aeropuerto","SUBCLASE":"Local","NOMBRE":"Aeródromo Pablo L. Sidar","NOMBRE_ALT":"N/D","FECHA_ACT":"2013-07-31 11:01:00","CALIREPR":"Definida"},"geometry":{"type":"Point","coordinates":[-103.173803704999955,18.772370284000033]}},
{"type":"Feature","properties":{"fid":8790,"ID_PI":9198,"CLASE":"Aeropuerto","SUBCLASE":"Local","NOMBRE":"Aeródromo Tumbiscatío","NOMBRE_ALT":"N/D","FECHA_ACT":"2013-08-05 10:26:00","CALIREPR":"Definida"},"geometry":{"type":"Point","coordinates":[-102.375829497999973,18.519914339000024]}},
{"type":"Feature","properties":{"fid":8907,"ID_PI":9323,"CLASE":"Aeropuerto","SUBCLASE":"Nacional","NOMBRE":"Aeropuerto Nacional de Colima","NOMBRE_ALT":"N/D","FECHA_ACT":"2019-01-28 14:31:18","CALIREPR":"Definida"},"geometry":{"type":"Point","coordinates":[-103.579207065,19.279493432000038]}},
{"type":"Feature","properties":{"fid":8908,"ID_PI":9324,"CLASE":"Aeropuerto","SUBCLASE":"Internacional","NOMBRE":"Aeropuerto Internacional de Manzanillo, Playa de Oro","NOMBRE_ALT":"Aeropuerto Internacional de Manzanillo","FECHA_ACT":"2014-04-28 15:41:00","CALIREPR":"Definida"},"geometry":{"type":"Point","coordinates":[-104.560019367129996,19.148255344830901]}},
{"type":"Feature","properties":{"fid":8909,"ID_PI":9325,"CLASE":"Aeropuerto","SUBCLASE":"Local","NOMBRE":"Aeródromo El Ranchito","NOMBRE_ALT":"N/D","FECHA_ACT":"2020-03-13 11:13:57","CALIREPR":"Definida"},"geometry":{"type":"Point","coordinates":[-103.676106636999975,18.683582622000074]}},
{"type":"Feature","properties":{"fid":8918,"ID_PI":9334,"CLASE":"Aeropuerto","SUBCLASE":"Internacional","NOMBRE":"Aeropuerto Internacional de Tepic, Amado Nervo","NOMBRE_ALT":"N/D","FECHA_ACT":"2025-09-23 00:00:00","CALIREPR":"Definida"},"geometry":{"type":"Point","coordinates":[-104.839041060999989,21.416989879000027]}},
{"type":"Feature","properties":{"fid":8921,"ID_PI":9337,"CLASE":"Aeropuerto","SUBCLASE":"Internacional","NOMBRE":"Aeropuerto Internacional de Puerto Vallarta, Lic. Gustavo Díaz Ordaz","NOMBRE_ALT":"N/D","FECHA_ACT":"2013-03-06 15:56:00","CALIREPR":"Definida"},"geometry":{"type":"Point","coordinates":[-105.249363366999944,20.678109169000038]}},
{"type":"Feature","properties":{"fid":9359,"ID_PI":9805,"CLASE":"Aeropuerto","SUBCLASE":"Internacional","NOMBRE":"Aeropuerto Internacional de Guadalajara Don Miguel Hidalgo y Costilla - Terminal 1","NOMBRE_ALT":"N/D","FECHA_ACT":"2025-09-25 00:00:00","CALIREPR":"Definida"},"geometry":{"type":"Point","coordinates":[-103.301061231999938,20.525909834000061]}},
{"type":"Feature","properties":{"fid":9581,"ID_PI":10037,"CLASE":"Aeropuerto","SUBCLASE":"Internacional","NOMBRE":"Aeropuerto Internacional de Aguascalientes","NOMBRE_ALT":"Aeropuerto Internacional de Aguascalientes Lic. Jesús Terán Peredo","FECHA_ACT":"2012-08-30 13:52:00","CALIREPR":"Definida"},"geometry":{"type":"Point","coordinates":[-102.313847651857998,21.701323794610101]}},
{"type":"Feature","properties":{"fid":9842,"ID_PI":10305,"CLASE":"Aeropuerto","SUBCLASE":"Internacional","NOMBRE":"Aeropuerto Intercontinental de Querétaro","NOMBRE_ALT":"N/D","FECHA_ACT":"2018-09-21 13:33:58","CALIREPR":"Definida"},"geometry":{"type":"Point","coordinates":[-100.187307137999937,20.622692924000035]}},
{"type":"Feature","properties":{"fid":9853,"ID_PI":10316,"CLASE":"Aeropuerto","SUBCLASE":"Local","NOMBRE":"Aeropuerto de Matehuala","NOMBRE_ALT":"Aeropuerto Ingeniero Manuel Moreno Torres","FECHA_ACT":"2013-03-19 13:11:00","CALIREPR":"Definida"},"geometry":{"type":"Point","coordinates":[-100.629904459,23.670885947000045]}},
{"type":"Feature","properties":{"fid":10032,"ID_PI":10497,"CLASE":"Aeropuerto","SUBCLASE":"Internacional","NOMBRE":"Aeropuerto Internacional de San Luis Potosí","NOMBRE_ALT":"Aeropuerto Internacional Ponciano Arriaga","FECHA_ACT":"2020-05-13 11:11:05","CALIREPR":"Definida"},"geometry":{"type":"Point","coordinates":[-100.936601180999958,22.255900626000027]}},
{"type":"Feature","properties":{"fid":10149,"ID_PI":10618,"CLASE":"Aeropuerto","SUBCLASE":"Nacional","NOMBRE":"Aeropuerto Nacional de Tamuín","NOMBRE_ALT":"N/D","FECHA_ACT":"2017-06-22 16:13:10","CALIREPR":"Definida"},"geometry":{"type":"Point","coordinates":[-98.805400055999939,22.045565812000063]}},
{"type":"Feature","properties":{"fid":10378,"ID_PI":10858,"CLASE":"Aeropuerto","SUBCLASE":"Local","NOMBRE":"Aeropuerto Nacional de Celaya","NOMBRE_ALT":"Aeropuerto Nacional Capitán Rogelio Castillo","FECHA_ACT":"2012-06-18 15:45:00","CALIREPR":"Definida"},"geometry":{"type":"Point","coordinates":[-100.885528553531998,20.544990482155999]}},
{"type":"Feature","properties":{"fid":10586,"ID_PI":11075,"CLASE":"Aeropuerto","SUBCLASE":"Internacional","NOMBRE":"Aeropuerto Internacional de Guanajuato","NOMBRE_ALT":"Aeropuerto Internacional del Bajío","FECHA_ACT":"2021-07-06 14:17:30","CALIREPR":"Definida"},"geometry":{"type":"Point","coordinates":[-101.479133824999963,20.98551726200003]}},
{"type":"Feature","properties":{"fid":11020,"ID_PI":11645,"CLASE":"Aeropuerto","SUBCLASE":"Local","NOMBRE":"Aeródromo Tzurumútaro","NOMBRE_ALT":"N/D","FECHA_ACT":"2015-10-16 12:30:01","CALIREPR":"Definida"},"geometry":{"type":"Point","coordinates":[-101.579505671999982,19.54781356500007]}},
{"type":"Feature","properties":{"fid":11189,"ID_PI":11884,"CLASE":"Aeropuerto","SUBCLASE":"Local","NOMBRE":"Aeropuerto Local Loma Bonita de Puerta Azul","NOMBRE_ALT":"N/D","FECHA_ACT":"2020-02-20 12:22:34","CALIREPR":"Definida"},"geometry":{"type":"Point","coordinates":[-105.172069370999978,21.838724658000046]}},
{"type":"Feature","properties":{"fid":11190,"ID_PI":11889,"CLASE":"Aeropuerto","SUBCLASE":"Local","NOMBRE":"Aeródromo de Pajacuarán","NOMBRE_ALT":"N/D","FECHA_ACT":"2016-06-21 13:02:23","CALIREPR":"Definida"},"geometry":{"type":"Point","coordinates":[-102.613546714999984,20.166123624000022]}},
{"type":"Feature","properties":{"fid":11211,"ID_PI":11933,"CLASE":"Aeropuerto","SUBCLASE":"Local","NOMBRE":"Aeródromo Morelia","NOMBRE_ALT":"N/D","FECHA_ACT":"2016-06-23 11:54:58","CALIREPR":"Definida"},"geometry":{"type":"Point","coordinates":[-101.281194785999958,19.611005868000063]}},
{"type":"Feature","properties":{"fid":11381,"ID_PI":12228,"CLASE":"Aeropuerto","SUBCLASE":"Local","NOMBRE":"Helipuerto ISSSTE Morelia","NOMBRE_ALT":"N/D","FECHA_ACT":"2016-06-23 12:54:21","CALIREPR":"Definida"},"geometry":{"type":"Point","coordinates":[-101.10509267499998,19.733591536000063]}},
{"type":"Feature","properties":{"fid":11412,"ID_PI":12276,"CLASE":"Aeropuerto","SUBCLASE":"Local","NOMBRE":"Helipuerto Cinépolis Morelia","NOMBRE_ALT":"N/D","FECHA_ACT":"2016-06-23 08:54:12","CALIREPR":"Definida"},"geometry":{"type":"Point","coordinates":[-101.119231661999947,19.715068531000043]}},
{"type":"Feature","properties":{"fid":11953,"ID_PI":13052,"CLASE":"Aeropuerto","SUBCLASE":"Local","NOMBRE":"Aeropuerto Local Valle de Banderas","NOMBRE_ALT":"N/D","FECHA_ACT":"2016-06-20 13:36:36","CALIREPR":"Definida"},"geometry":{"type":"Point","coordinates":[-105.256852094999942,20.80745113200004]}},
{"type":"Feature","properties":{"fid":11996,"ID_PI":13114,"CLASE":"Aeropuerto","SUBCLASE":"Local","NOMBRE":"Helipuerto Zitácuaro","NOMBRE_ALT":"N/D","FECHA_ACT":"2016-06-15 10:06:30","CALIREPR":"Definida"},"geometry":{"type":"Point","coordinates":[-100.410127900999953,19.516709221000042]}},
{"type":"Feature","properties":{"fid":12014,"ID_PI":13143,"CLASE":"Aeropuerto","SUBCLASE":"Local","NOMBRE":"Aeródromo El Pinocho","NOMBRE_ALT":"N/D","FECHA_ACT":"2016-06-17 12:08:40","CALIREPR":"Definida"},"geometry":{"type":"Point","coordinates":[-100.42823859799995,19.476431386000058]}},
{"type":"Feature","properties":{"fid":12183,"ID_PI":13395,"CLASE":"Aeropuerto","SUBCLASE":"Local","NOMBRE":"Aeródromo Los Barajas","NOMBRE_ALT":"N/D","FECHA_ACT":"2016-06-20 14:37:32","CALIREPR":"Definida"},"geometry":{"type":"Point","coordinates":[-102.216904380999949,19.003204529000072]}},
{"type":"Feature","properties":{"fid":12192,"ID_PI":13410,"CLASE":"Aeropuerto","SUBCLASE":"Local","NOMBRE":"Aeródromo Nueva Italia","NOMBRE_ALT":"N/D","FECHA_ACT":"2016-06-20 14:12:25","CALIREPR":"Definida"},"geometry":{"type":"Point","coordinates":[-102.112224884999989,18.990613199000052]}},
{"type":"Feature","properties":{"fid":12193,"ID_PI":13412,"CLASE":"Aeropuerto","SUBCLASE":"Local","NOMBRE":"Aeródromo Múgica","NOMBRE_ALT":"N/D","FECHA_ACT":"2020-03-17 12:21:29","CALIREPR":"Definida"},"geometry":{"type":"Point","coordinates":[-102.086084480999958,18.988466270000064]}},
{"type":"Feature","properties":{"fid":12216,"ID_PI":13444,"CLASE":"Aeropuerto","SUBCLASE":"Local","NOMBRE":"Aeródromo Gabriel Zamora","NOMBRE_ALT":"N/D","FECHA_ACT":"2016-06-20 14:35:56","CALIREPR":"Definida"},"geometry":{"type":"Point","coordinates":[-102.014152199999955,19.156897001000061]}},
{"type":"Feature","properties":{"fid":12303,"ID_PI":13572,"CLASE":"Aeropuerto","SUBCLASE":"Local","NOMBRE":"Aeródromo Cutzarondiro","NOMBRE_ALT":"N/D","FECHA_ACT":"2016-06-20 14:03:45","CALIREPR":"Definida"},"geometry":{"type":"Point","coordinates":[-101.501523827999961,19.178085825000039]}},
{"type":"Feature","properties":{"fid":12458,"ID_PI":13783,"CLASE":"Aeropuerto","SUBCLASE":"Local","NOMBRE":"Aeródromo El Fénix","NOMBRE_ALT":"N/D","FECHA_ACT":"2016-06-13 11:20:04","CALIREPR":"Definida"},"geometry":{"type":"Point","coordinates":[-102.284057416999985,19.019967530000031]}},
{"type":"Feature","properties":{"fid":12506,"ID_PI":13856,"CLASE":"Aeropuerto","SUBCLASE":"Local","NOMBRE":"Aeródromo Hernández Ranch","NOMBRE_ALT":"N/D","FECHA_ACT":"2020-02-20 10:02:30","CALIREPR":"Definida"},"geometry":{"type":"Point","coordinates":[-102.329736604999937,19.328888419000066]}},
{"type":"Feature","properties":{"fid":12607,"ID_PI":14004,"CLASE":"Aeropuerto","SUBCLASE":"Nacional","NOMBRE":"Aeropuerto Nacional de Cabo San Lucas","NOMBRE_ALT":"N/D","FECHA_ACT":"2016-06-24 11:39:50","CALIREPR":"Definida"},"geometry":{"type":"Point","coordinates":[-109.936396568999953,22.946043332000045]}},
{"type":"Feature","properties":{"fid":12648,"ID_PI":14062,"CLASE":"Aeropuerto","SUBCLASE":"Local","NOMBRE":"Aeródromo Buenavista 3","NOMBRE_ALT":"N/D","FECHA_ACT":"2018-08-28 12:21:38","CALIREPR":"Definida"},"geometry":{"type":"Point","coordinates":[-102.685587291,19.227832635000027]}},
{"type":"Feature","properties":{"fid":12650,"ID_PI":14067,"CLASE":"Aeropuerto","SUBCLASE":"Local","NOMBRE":"Aeródromo Tepalcatepec 3","NOMBRE_ALT":"N/D","FECHA_ACT":"2016-06-21 11:11:39","CALIREPR":"Definida"},"geometry":{"type":"Point","coordinates":[-102.828883537999957,19.203696679000075]}},
{"type":"Feature","properties":{"fid":12651,"ID_PI":14069,"CLASE":"Aeropuerto","SUBCLASE":"Local","NOMBRE":"Aeródromo Tepalcatepec 4","NOMBRE_ALT":"Fumigaciones López","FECHA_ACT":"2016-06-21 09:30:32","CALIREPR":"Definida"},"geometry":{"type":"Point","coordinates":[-102.83479055,19.20017507600005]}},
{"type":"Feature","properties":{"fid":12652,"ID_PI":14070,"CLASE":"Aeropuerto","SUBCLASE":"Local","NOMBRE":"Aeródromo Tepalcatepec 6","NOMBRE_ALT":"N/D","FECHA_ACT":"2016-06-21 13:29:48","CALIREPR":"Definida"},"geometry":{"type":"Point","coordinates":[-102.838471575999961,19.214563677000058]}},
{"type":"Feature","properties":{"fid":12661,"ID_PI":14089,"CLASE":"Aeropuerto","SUBCLASE":"Local","NOMBRE":"Aeródromo Tepalcatepec 5","NOMBRE_ALT":"N/D","FECHA_ACT":"2016-06-21 08:37:09","CALIREPR":"Definida"},"geometry":{"type":"Point","coordinates":[-102.815906464999955,19.135958553000023]}},
{"type":"Feature","properties":{"fid":12677,"ID_PI":14113,"CLASE":"Aeropuerto","SUBCLASE":"Local","NOMBRE":"Aeródromo Tepalcatepec 1","NOMBRE_ALT":"N/D","FECHA_ACT":"2016-06-21 11:50:09","CALIREPR":"Definida"},"geometry":{"type":"Point","coordinates":[-102.801562284999989,19.074153187000036]}},
{"type":"Feature","properties":{"fid":12691,"ID_PI":14133,"CLASE":"Aeropuerto","SUBCLASE":"Local","NOMBRE":"Aeródromo Aguililla 2","NOMBRE_ALT":"N/D","FECHA_ACT":"2016-06-21 14:47:46","CALIREPR":"Definida"},"geometry":{"type":"Point","coordinates":[-102.719164853999985,18.978847163000069]}},
{"type":"Feature","properties":{"fid":12714,"ID_PI":14169,"CLASE":"Aeropuerto","SUBCLASE":"Local","NOMBRE":"Aeródromo Huetamo","NOMBRE_ALT":"N/D","FECHA_ACT":"2018-10-09 16:18:57","CALIREPR":"Definida"},"geometry":{"type":"Point","coordinates":[-100.850807490999955,18.529093500000045]}},
{"type":"Feature","properties":{"fid":13418,"ID_PI":15169,"CLASE":"Aeropuerto","SUBCLASE":"Local","NOMBRE":"Aeropuerto de Holbox","NOMBRE_ALT":"Holbox","FECHA_ACT":"2016-06-02 14:22:19","CALIREPR":"Definida"},"geometry":{"type":"Point","coordinates":[-87.382677124999987,21.519997082000032]}},
{"type":"Feature","properties":{"fid":13729,"ID_PI":15652,"CLASE":"Aeropuerto","SUBCLASE":"Local","NOMBRE":"Aeródromo Felipe Carrillo Puerto","NOMBRE_ALT":"N/D","FECHA_ACT":"2025-09-29 00:00:00","CALIREPR":"Definida"},"geometry":{"type":"Point","coordinates":[-88.073483651999936,19.610089140000071]}},
{"type":"Feature","properties":{"fid":13755,"ID_PI":15685,"CLASE":"Aeropuerto","SUBCLASE":"Militar","NOMBRE":"Armada de México Aeródromo","NOMBRE_ALT":"N/D","FECHA_ACT":"2016-06-03 15:07:37","CALIREPR":"Definida"},"geometry":{"type":"Point","coordinates":[-86.741170328999942,21.248263421000047]}},
{"type":"Feature","properties":{"fid":14142,"ID_PI":16290,"CLASE":"Aeropuerto","SUBCLASE":"Militar","NOMBRE":"5/o. Batallón de Ingenieros de Combate, Cerro Azul","NOMBRE_ALT":"N/D","FECHA_ACT":"2025-08-12 09:21:22","CALIREPR":"Definida"},"geometry":{"type":"Point","coordinates":[-97.754362588999982,21.163826892000031]}},
{"type":"Feature","properties":{"fid":14246,"ID_PI":16447,"CLASE":"Aeropuerto","SUBCLASE":"Nacional","NOMBRE":"Aeropuerto Nacional de Guerrero Negro","NOMBRE_ALT":"N/D","FECHA_ACT":"2016-06-14 15:58:25","CALIREPR":"Definida"},"geometry":{"type":"Point","coordinates":[-114.020866744773002,28.026584438289198]}},
{"type":"Feature","properties":{"fid":14344,"ID_PI":16619,"CLASE":"Aeropuerto","SUBCLASE":"Militar","NOMBRE":"Base Aérea Militar Número 8","NOMBRE_ALT":"N/D","FECHA_ACT":"2021-07-07 15:41:11","CALIREPR":"Definida"},"geometry":{"type":"Point","coordinates":[-89.645315119999964,20.936869858000023]}},
{"type":"Feature","properties":{"fid":14584,"ID_PI":16989,"CLASE":"Aeropuerto","SUBCLASE":"Internacional","NOMBRE":"Aeropuerto Internacional de Tapachula","NOMBRE_ALT":"N/D","FECHA_ACT":"2016-08-17 10:18:39","CALIREPR":"Definida"},"geometry":{"type":"Point","coordinates":[-92.3685981476644,14.79020803437]}},
{"type":"Feature","properties":{"fid":14590,"ID_PI":17005,"CLASE":"Aeropuerto","SUBCLASE":"Local","NOMBRE":"Aeropuerto Cedros","NOMBRE_ALT":"Aeródromo de CED","FECHA_ACT":"2017-01-23 10:54:29","CALIREPR":"Definida"},"geometry":{"type":"Point","coordinates":[-101.805997188,24.631816790000073]}},
{"type":"Feature","properties":{"fid":15016,"ID_PI":17750,"CLASE":"Aeropuerto","SUBCLASE":"Nacional","NOMBRE":"Aeropuerto Nacional de Cananea","NOMBRE_ALT":"N/D","FECHA_ACT":"2017-01-20 08:32:42","CALIREPR":"Definida"},"geometry":{"type":"Point","coordinates":[-110.09787318399998,31.066189914000066]}},
{"type":"Feature","properties":{"fid":15017,"ID_PI":17754,"CLASE":"Aeropuerto","SUBCLASE":"Nacional","NOMBRE":"Aeropuerto de Agua Prieta","NOMBRE_ALT":"N/D","FECHA_ACT":"2017-01-23 11:55:23","CALIREPR":"Definida"},"geometry":{"type":"Point","coordinates":[-109.607048644999978,31.246038191000022]}},
{"type":"Feature","properties":{"fid":15187,"ID_PI":18047,"CLASE":"Aeropuerto","SUBCLASE":"Internacional","NOMBRE":"Aeropuerto Internacional de Guadalajara Don Miguel Hidalgo y Costilla","NOMBRE_ALT":"N/D","FECHA_ACT":"2025-09-25 00:00:00","CALIREPR":"Definida"},"geometry":{"type":"Point","coordinates":[-103.301816655999971,20.526147024000068]}},
{"type":"Feature","properties":{"fid":15307,"ID_PI":18251,"CLASE":"Aeropuerto","SUBCLASE":"Nacional","NOMBRE":"Aeropuerto Nacional de Zamora","NOMBRE_ALT":"N/D","FECHA_ACT":"2017-05-08 08:45:54","CALIREPR":"Definida"},"geometry":{"type":"Point","coordinates":[-102.276551268,20.038064895000048]}},
{"type":"Feature","properties":{"fid":17416,"ID_PI":21895,"CLASE":"Aeropuerto","SUBCLASE":"Local","NOMBRE":"Aeropuerto Santiago Jamiltepec","NOMBRE_ALT":"N/D","FECHA_ACT":"2023-06-20 10:26:06","CALIREPR":"Definida"},"geometry":{"type":"Point","coordinates":[-97.83324007799996,16.280838775000063]}},
{"type":"Feature","properties":{"fid":17498,"ID_PI":22029,"CLASE":"Aeropuerto","SUBCLASE":"Local","NOMBRE":"Aeródromo de Tututepec","NOMBRE_ALT":"N/D","FECHA_ACT":"2017-10-24 11:18:39","CALIREPR":"Definida"},"geometry":{"type":"Point","coordinates":[-97.614574927999968,16.107820161000063]}},
{"type":"Feature","properties":{"fid":19506,"ID_PI":25284,"CLASE":"Aeropuerto","SUBCLASE":"Militar","NOMBRE":"Aeropuerto Regional de Agualeguas","NOMBRE_ALT":"N/D","FECHA_ACT":"2017-09-19 08:32:13","CALIREPR":"Definida"},"geometry":{"type":"Point","coordinates":[-99.542299411999977,26.329672668000061]}},
{"type":"Feature","properties":{"fid":19588,"ID_PI":25418,"CLASE":"Aeropuerto","SUBCLASE":"Local","NOMBRE":"Club Aéreo Francisco Lobo A.C.","NOMBRE_ALT":"Aeródromo","FECHA_ACT":"2017-08-29 14:38:31","CALIREPR":"Definida"},"geometry":{"type":"Point","coordinates":[-100.449143073999949,25.793549480000024]}},
{"type":"Feature","properties":{"fid":19791,"ID_PI":25717,"CLASE":"Aeropuerto","SUBCLASE":"Internacional","NOMBRE":"Aeropuerto Internacional de Uruapan, Gral. Ignacio L. Rayón","NOMBRE_ALT":"N/D","FECHA_ACT":"2017-09-08 13:25:19","CALIREPR":"Definida"},"geometry":{"type":"Point","coordinates":[-102.038757760999943,19.402841622000039]}},
{"type":"Feature","properties":{"fid":20210,"ID_PI":26405,"CLASE":"Aeropuerto","SUBCLASE":"Militar","NOMBRE":"Base de la Fuerza Aérea Santa Lucía","NOMBRE_ALT":"BAM-1 Santa Lucía","FECHA_ACT":"2022-09-05 00:00:00","CALIREPR":"Definida"},"geometry":{"type":"Point","coordinates":[-99.02577039099998,19.720847805000062]}},
{"type":"Feature","properties":{"fid":20749,"ID_PI":27246,"CLASE":"Aeropuerto","SUBCLASE":"Internacional","NOMBRE":"Aeropuerto Internacional de Guadalajara Don Miguel Hidalgo y Costilla - Terminal 2","NOMBRE_ALT":"N/D","FECHA_ACT":"2025-09-25 00:00:00","CALIREPR":"Definida"},"geometry":{"type":"Point","coordinates":[-103.304491243999962,20.525827873000026]}},
{"type":"Feature","properties":{"fid":20783,"ID_PI":27282,"CLASE":"Aeropuerto","SUBCLASE":"Local","NOMBRE":"Aeropuerto Regional de Mahahual","NOMBRE_ALT":"N/D","FECHA_ACT":"2018-10-10 10:19:27","CALIREPR":"Definida"},"geometry":{"type":"Point","coordinates":[-87.700218258999939,18.758132852000074]}},
{"type":"Feature","properties":{"fid":21343,"ID_PI":27929,"CLASE":"Aeropuerto","SUBCLASE":"Militar","NOMBRE":"Base Aérea Militar No. 3, El Ciprés B.C","NOMBRE_ALT":"N/D","FECHA_ACT":"2025-09-23 00:00:00","CALIREPR":"Definida"},"geometry":{"type":"Point","coordinates":[-116.594562448999966,31.79688526800004]}},
{"type":"Feature","properties":{"fid":21344,"ID_PI":27930,"CLASE":"Aeropuerto","SUBCLASE":"Internacional","NOMBRE":"Aeropuerto Internacional Ensenada","NOMBRE_ALT":"N/D","FECHA_ACT":"2025-09-23 00:00:00","CALIREPR":"Definida"},"geometry":{"type":"Point","coordinates":[-116.595447369999988,31.798064053000076]}},
{"type":"Feature","properties":{"fid":22416,"ID_PI":29135,"CLASE":"Aeropuerto","SUBCLASE":"Internacional","NOMBRE":"Aeropuerto Internacional Benito Juárez de la Ciudad de México","NOMBRE_ALT":"N/D","FECHA_ACT":"2020-08-07 10:25:18","CALIREPR":"Definida"},"geometry":{"type":"Point","coordinates":[-99.08578659899996,19.433771076000028]}},
{"type":"Feature","properties":{"fid":22824,"ID_PI":29617,"CLASE":"Aeropuerto","SUBCLASE":"Local","NOMBRE":"Aeropuerto Ingeniero Juan Antonio Perdomo Díaz","NOMBRE_ALT":"Aeropuerto de Córdoba","FECHA_ACT":"2021-10-29 15:54:55","CALIREPR":"Definida"},"geometry":{"type":"Point","coordinates":[-96.956480943999964,18.872466238000072]}},
{"type":"Feature","properties":{"fid":23355,"ID_PI":30253,"CLASE":"Aeropuerto","SUBCLASE":"Internacional","NOMBRE":"Aeropuerto Internacional Felipe Ángeles","NOMBRE_ALT":"AIFA","FECHA_ACT":"2022-07-28 12:13:54","CALIREPR":"Definida"},"geometry":{"type":"Point","coordinates":[-99.023036959999956,19.736872298000037]}},
{"type":"Feature","properties":{"fid":23470,"ID_PI":30396,"CLASE":"Aeropuerto","SUBCLASE":"Militar","NOMBRE":"Base Aerea Militar No. 15","NOMBRE_ALT":"N/D","FECHA_ACT":"2023-02-17 16:33:11","CALIREPR":"Definida"},"geometry":{"type":"Point","coordinates":[-96.72113610699995,16.993527294000046]}},
{"type":"Feature","properties":{"fid":24333,"ID_PI":31362,"CLASE":"Aeropuerto","SUBCLASE":"Local","NOMBRE":"Aeropuerto de Mayto Ingeniero Leo Jiménez","NOMBRE_ALT":"N/D","FECHA_ACT":"2023-06-09 11:15:39","CALIREPR":"Definida"},"geometry":{"type":"Point","coordinates":[-105.584363955999947,20.261708609000038]}},
{"type":"Feature","properties":{"fid":24683,"ID_PI":31764,"CLASE":"Aeropuerto","SUBCLASE":"Local","NOMBRE":"Aeropuerto Región Carbonifera","NOMBRE_ALT":"N/D","FECHA_ACT":"2023-08-14 16:27:20","CALIREPR":"Definida"},"geometry":{"type":"Point","coordinates":[-101.20405352399996,27.972125347000031]}},
{"type":"Feature","properties":{"fid":25386,"ID_PI":32558,"CLASE":"Aeropuerto","SUBCLASE":"Internacional","NOMBRE":"Mar de Cortez","NOMBRE_ALT":"N/D","FECHA_ACT":"2024-05-31 15:42:10","CALIREPR":"Definida"},"geometry":{"type":"Point","coordinates":[-113.302960451999979,31.351156748000051]}},
{"type":"Feature","properties":{"fid":26017,"ID_PI":33258,"CLASE":"Aeropuerto","SUBCLASE":"Militar","NOMBRE":"Batallon de Infanteria 93","NOMBRE_ALT":"Zona Militar 35","FECHA_ACT":"2024-05-13 11:11:02","CALIREPR":"Definida"},"geometry":{"type":"Point","coordinates":[-98.55594877599998,17.566251284000032]}},
{"type":"Feature","properties":{"fid":27966,"ID_PI":35578,"CLASE":"Aeropuerto","SUBCLASE":"Local","NOMBRE":"Aeródromo Múzquiz","NOMBRE_ALT":"MX2054","FECHA_ACT":"2025-06-12 08:39:17","CALIREPR":"Definida"},"geometry":{"type":"Point","coordinates":[-101.527096969999945,27.85828323000004]}},
{"type":"Feature","properties":{"fid":27998,"ID_PI":35614,"CLASE":"Aeropuerto","SUBCLASE":"Internacional","NOMBRE":"Aeropuerto Internacional de Tulum, Felipe Carrillo Puerto","NOMBRE_ALT":"Aeropuerto Internacional de Tulum","FECHA_ACT":"2025-05-28 12:22:05","CALIREPR":"Definida"},"geometry":{"type":"Point","coordinates":[-87.659015260999979,20.166328188000023]}}
]
}
